[{"OBJECT_NAME":"BUGSAT-1 (TITA)","OBJECT_ID":"2014-033E","EPOCH":"2026-03-09T23:14:58.322976","MEAN_MOTION":15.14502987,"ECCENTRICITY":0.00292569,"INCLINATION":98.0428,"RA_OF_ASC_NODE":155.8085,"ARG_OF_PERICENTER":157.4521,"MEAN_ANOMALY":202.8002,"EPHEMERIS_TYPE":0,"CLASSIFICATION_TYPE":"U","NORAD_CAT_ID":40014,"ELEMENT_SET_NO":999,"REV_AT_EPOCH":64081,"BSTAR":0.00030961592,"MEAN_MOTION_DOT":5.686e-5,"MEAN_MOTION_DDOT":0},{"OBJECT_NAME":"STARLINK-3458","OBJECT_ID":"2022-016AW","EPOCH":"2026-03-09T22:01:55.102368","MEAN_MOTION":15.08840369,"ECCENTRICITY":0.00012287,"INCLINATION":53.2181,"RA_OF_ASC_NODE":308.0494,"ARG_OF_PERICENTER":87.2143,"MEAN_ANOMALY":272.899,"EPHEMERIS_TYPE":0,"CLASSIFICATION_TYPE":"U","NORAD_CAT_ID":51758,"ELEMENT_SET_NO":999,"REV_AT_EPOCH":22488,"BSTAR":9.9118827e-5,"MEAN_MOTION_DOT":1.29e-5,"MEAN_MOTION_DDOT":0}]
